NORAD_CAT_ID,OBJECT_NAME,OBJECT_TYPE,EPOCH,MEAN_MOTION,ECCENTRICITY,INCLINATION,RA_OF_ASC_NODE,ARG_OF_PERICENTER,MEAN_ANOMALY,BSTAR,MEAN_MOTION_DOT,MEAN_MOTION_DDOT,TLE_LINE0,TLE_LINE1,TLE_LINE2,SEMIMAJOR_AXIS,PERIOD,APOGEE,PERIGEE,DECAYED
54056.0,STARLINK-5226,PAYLOAD,2024-01-16 01:50:30,15.08846924,0.0001348,53.2169,261.9946,93.2983,266.8163,5.6e-05,6.04e-06,0.0,0 STARLINK-5226,1 54056U 22136F   24016.07674416  .00000604  00000-0  56000-4 0  9997,2 54056  53.2169 261.9946 0001348  93.2983 266.8163 15.08846924 69021,6917.859,95.437,540.657,538.792,0.0
54056.0,STARLINK-5226,PAYLOAD,2024-01-16 19:19:45,15.08841785,0.0001393,53.2154,258.7246,86.3248,273.7903,6.5215e-05,7.5e-06,0.0,0 STARLINK-5226,1 54056U 22136F   24016.80538913  .00000750  00000-0  65215-4 0  9999,2 54056  53.2154 258.7246 0001393  86.3248 273.7903 15.08841785 69130,6917.875,95.437,540.704,538.776,0.0
54056.0,STARLINK-5226,PAYLOAD,2024-01-16 22:30:31,15.08845136,0.0001445,53.2153,258.1296,85.8902,274.2255,0.00011024,1.467e-05,0.0,0 STARLINK-5226,1 54056U 22136F   24016.93786740  .00001467  00000-0  11024-3 0  9990,2 54056  53.2153 258.1296 0001445  85.8902 274.2255 15.08845136 68675,6917.865,95.437,540.729,538.73,0.0
54056.0,STARLINK-5226,PAYLOAD,2024-01-17 22:21:19,15.08840741,0.0001286,53.2163,253.6682,100.6447,259.469,6.8515e-05,8.03e-06,0.0,0 STARLINK-5226,1 54056U 22136F   24017.93147090  .00000803  00000-0  68515-4 0  9991,2 54056  53.2163 253.6682 0001286 100.6447 259.4690 15.08840741 68820,6917.878,95.438,540.633,538.853,0.0
54056.0,STARLINK-5226,PAYLOAD,2024-01-18 01:32:05,15.08840482,0.0001258,53.2162,253.0739,100.0287,260.0847,8.0612e-05,9.95e-06,0.0,0 STARLINK-5226,1 54056U 22136F   24018.06395062  .00000995  00000-0  80612-4 0  9994,2 54056  53.2162 253.0739 0001258 100.0287 260.0847 15.08840482 69321,6917.879,95.438,540.614,538.874,0.0
54056.0,STARLINK-5226,PAYLOAD,2024-01-18 19:01:21,15.08828824,0.0001622,53.2162,249.7968,120.7328,239.3824,-6.0957e-05,-1.258e-05,0.0,0 STARLINK-5226,1 54056U 22136F   24018.79260713 -.00001258  00000-0 -60957-4 0  9993,2 54056  53.2162 249.7968 0001622 120.7328 239.3824 15.08828824 69439,6917.915,95.438,540.902,538.657,0.0
54056.0,STARLINK-5226,PAYLOAD,2024-01-18 22:12:07,15.08825102,0.0001388,53.2161,249.2028,103.4521,256.6626,-3.9005e-05,-9.08e-06,0.0,0 STARLINK-5226,1 54056U 22136F   24018.92509023 -.00000908  00000-0 -39005-4 0  9999,2 54056  53.2161 249.2028 0001388 103.4521 256.6626 15.08825102 68978,6917.926,95.438,540.751,538.831,0.0
54056.0,STARLINK-5226,PAYLOAD,2024-01-19 18:52:07,15.08842517,0.0001107,53.2161,245.3415,97.865,262.2467,0.00014741,2.059e-05,0.0,0 STARLINK-5226,1 54056U 22136F   24019.78620223  .00002059  00000-0  14741-3 0  9996,2 54056  53.2161 245.3415 0001107  97.8650 262.2467 15.08842517 69586,6917.873,95.437,540.504,538.972,0.0
54056.0,STARLINK-5226,PAYLOAD,2024-01-19 22:02:54,15.08845992,0.0001222,53.2158,244.7461,104.3444,255.7684,0.00024593,3.629e-05,0.0,0 STARLINK-5226,1 54056U 22136F   24019.91868225  .00003629  00000-0  24593-3 0  9997,2 54056  53.2158 244.7461 0001222 104.3444 255.7684 15.08845992 69127,6917.862,95.437,540.572,538.882,0.0
54056.0,STARLINK-5226,PAYLOAD,2024-01-20 13:56:45,15.08843653,0.000118,53.2157,241.776,93.0387,267.074,0.00038542,5.852e-05,0.0,0 STARLINK-5226,1 54056U 22136F   24020.58108613  .00005852  00000-0  38542-3 0  9999,2 54056  53.2157 241.7760 0001180  93.0387 267.0740 15.08843653 69220,6917.869,95.437,540.551,538.918,0.0
54056.0,STARLINK-5226,PAYLOAD,2024-01-20 21:53:41,15.08854022,0.0001165,53.2154,240.289,90.1259,269.9866,0.00039113,5.945e-05,0.0,0 STARLINK-5226,1 54056U 22136F   24020.91228135  .00005945  00000-0  39113-3 0  9996,2 54056  53.2154 240.2890 0001165  90.1259 269.9866 15.08854022 69271,6917.838,95.437,540.508,538.897,0.0
54056.0,STARLINK-5226,PAYLOAD,2024-01-20 23:29:04,15.08858644,0.0001165,53.2154,239.9913,93.1835,266.9291,0.00041764,6.368e-05,0.0,0 STARLINK-5226,1 54056U 22136F   24020.97851916  .00006368  00000-0  41764-3 0  9996,2 54056  53.2154 239.9913 0001165  93.1835 266.9291 15.08858644 69762,6917.823,95.436,540.494,538.882,0.0
54056.0,STARLINK-5226,PAYLOAD,2024-01-21 20:09:04,15.08851548,0.0001368,53.2159,236.1256,91.3274,268.7875,3.4461e-05,2.61e-06,0.0,0 STARLINK-5226,1 54056U 22136F   24021.83963536  .00000261  00000-0  34461-4 0  9997,2 54056  53.2159 236.1256 0001368  91.3274 268.7875 15.08851548 69896,6917.845,95.437,540.656,538.764,0.0
54056.0,STARLINK-5226,PAYLOAD,2024-01-21 21:44:27,15.08850079,0.000148,53.2163,235.8286,84.8953,275.2208,6.3902e-05,7.29e-06,0.0,0 STARLINK-5226,1 54056U 22136F   24021.90587615  .00000729  00000-0  63902-4 0  9996,2 54056  53.2163 235.8286 0001480  84.8953 275.2208 15.08850079 69426,6917.85,95.437,540.738,538.691,0.0
54056.0,STARLINK-5226,PAYLOAD,2024-01-21 23:19:51,15.088425,0.0001446,53.2161,235.5307,84.488,275.6277,0.00041528,6.328e-05,0.0,0 STARLINK-5226,1 54056U 22136F   24021.97212142  .00006328  00000-0  41528-3 0  9993,2 54056  53.2161 235.5307 0001446  84.4880 275.6277 15.08842500 69916,6917.873,95.437,540.738,538.737,0.0
54056.0,STARLINK-5226,PAYLOAD,2024-01-22 19:59:51,15.08841398,0.0001242,53.215,231.6633,83.5805,276.5328,-6.0063e-05,-1.244e-05,0.0,0 STARLINK-5226,1 54056U 22136F   24022.83323891 -.00001244  00000-0 -60063-4 0  9993,2 54056  53.2150 231.6633 0001242  83.5805 276.5328 15.08841398 70041,6917.876,95.437,540.6,538.882,0.0
54056.0,STARLINK-5226,PAYLOAD,2024-01-22 21:35:15,15.08844472,0.0001196,53.2159,231.3665,73.6029,286.5095,-1.0946e-05,-4.62e-06,0.0,0 STARLINK-5226,1 54056U 22136F   24022.89948111 -.00000462  00000-0 -10946-4 0  9993,2 54056  53.2159 231.3665 0001196  73.6029 286.5095 15.08844472 69572,6917.867,95.437,540.559,538.904,0.0
54056.0,STARLINK-5226,PAYLOAD,2024-01-23 05:32:10,15.08845172,0.0001164,53.2149,229.8808,86.4439,273.6687,-1.8567e-05,-5.83e-06,0.0,0 STARLINK-5226,1 54056U 22136F   24023.23067935 -.00000583  00000-0 -18567-4 0  9999,2 54056  53.2149 229.8808 0001164  86.4439 273.6687 15.08845172 69622,6917.865,95.437,540.535,538.924,0.0
54056.0,STARLINK-5226,PAYLOAD,2024-01-23 21:26:01,15.08848199,0.0001182,53.2155,226.9059,89.8626,270.2502,5.115e-05,5.26e-06,0.0,0 STARLINK-5226,1 54056U 22136F   24023.89307445  .00000526  00000-0  51150-4 0  9994,2 54056  53.2155 226.9059 0001182  89.8626 270.2502 15.08848199 69722,6917.855,95.437,540.538,538.903,0.0
54056.0,STARLINK-5226,PAYLOAD,2024-01-24 03:47:34,15.08848529,0.0001194,53.2157,225.7162,91.9792,268.1336,5.8862e-05,6.49e-06,0.0,0 STARLINK-5226,1 54056U 22136F   24024.15803318  .00000649  00000-0  58862-4 0  9997,2 54056  53.2157 225.7162 0001194  91.9792 268.1336 15.08848529 70244,6917.854,95.437,540.545,538.893,0.0
54056.0,STARLINK-5226,PAYLOAD,2024-01-24 13:19:53,15.08839793,0.0001215,53.2147,223.9322,90.8243,269.2889,0.00024316,3.584e-05,0.0,0 STARLINK-5226,1 54056U 22136F   24024.55547975  .00003584  00000-0  24316-3 0  9992,2 54056  53.2147 223.9322 0001215  90.8243 269.2889 15.08839793 69824,6917.881,95.438,540.587,538.905,0.0
54056.0,STARLINK-5226,PAYLOAD,2024-01-24 21:16:48,15.08845682,0.0001253,53.2158,222.4454,85.2953,274.8182,0.00016082,2.273e-05,0.0,0 STARLINK-5226,1 54056U 22136F   24024.88667417  .00002273  00000-0  16082-3 0  9997,2 54056  53.2158 222.4454 0001253  85.2953 274.8182 15.08845682 69871,6917.863,95.437,540.595,538.861,0.0
54056.0,STARLINK-5226,PAYLOAD,2024-01-24 22:52:11,15.08846521,0.0001259,53.2158,222.148,84.9542,275.1594,0.00015767,2.223e-05,0.0,0 STARLINK-5226,1 54056U 22136F   24024.95291368  .00002223  00000-0  15767-3 0  9997,2 54056  53.2158 222.1480 0001259  84.9542 275.1594 15.08846521 69888,6917.86,95.437,540.596,538.854,0.0
54056.0,STARLINK-5226,PAYLOAD,2024-01-25 19:32:13,15.08839478,0.0001257,53.2157,218.282,90.0465,270.0671,4.6121e-05,4.46e-06,0.0,0 STARLINK-5226,1 54056U 22136F   24025.81404064  .00000446  00000-0  46121-4 0  9996,2 54056  53.2157 218.2820 0001257  90.0465 270.0671 15.08839478 70493,6917.882,95.438,540.617,538.877,0.0
54056.0,STARLINK-5226,PAYLOAD,2024-01-27 12:52:14,15.08837239,0.0001215,53.2158,210.5485,92.7385,267.3746,8.9604e-05,1.138e-05,0.0,0 STARLINK-5226,1 54056U 22136F   24027.53628159  .00001138  00000-0  89604-4 0  9992,2 54056  53.2158 210.5485 0001215  92.7385 267.3746 15.08837239 70754,6917.889,95.438,540.594,538.913,0.0
54056.0,STARLINK-5226,PAYLOAD,2024-01-27 19:13:47,15.08838133,0.000121,53.2158,209.359,92.979,267.1341,8.7583e-05,1.106e-05,0.0,0 STARLINK-5226,1 54056U 22136F   24027.80124146  .00001106  00000-0  87583-4 0  9998,2 54056  53.2158 209.3590 0001210  92.9790 267.1341 15.08838133 70319,6917.886,95.438,540.588,538.914,0.0
54056.0,STARLINK-5226,PAYLOAD,2024-01-28 19:04:34,15.08841209,0.0001261,53.2164,204.9004,92.7316,267.382,7.6317e-05,9.27e-06,0.0,0 STARLINK-5226,1 54056U 22136F   24028.79484116  .00000927  00000-0  76317-4 0  9996,2 54056  53.2164 204.9004 0001261  92.7316 267.3820 15.08841209 70946,6917.877,95.437,540.614,538.869,0.0
54056.0,STARLINK-5226,PAYLOAD,2024-01-28 20:39:57,15.08841708,0.0001263,53.2164,204.6016,91.034,269.0797,7.9606e-05,9.79e-06,0.0,0 STARLINK-5226,1 54056U 22136F   24028.86108061  .00000979  00000-0  79606-4 0  9997,2 54056  53.2164 204.6016 0001263  91.0340 269.0797 15.08841708 70471,6917.875,95.437,540.614,538.866,0.0
54056.0,STARLINK-5226,PAYLOAD,2024-01-29 20:30:44,15.08844193,0.000124,53.2162,200.1431,87.6498,272.4636,0.00010205,1.337e-05,0.0,0 STARLINK-5226,1 54056U 22136F   24029.85467834  .00001337  00000-0  10205-3 0  9991,2 54056  53.2162 200.1431 0001240  87.6498 272.4636 15.08844193 70629,6917.868,95.437,540.59,538.875,0.0
54056.0,STARLINK-5226,PAYLOAD,2024-01-30 10:49:12,15.0884097,0.0001311,53.2165,197.468,81.8355,278.2786,3.9565e-05,3.42e-06,0.0,0 STARLINK-5226,1 54056U 22136F   24030.45084307  .00000342  00000-0  39565-4 0  9995,2 54056  53.2165 197.4680 0001311  81.8355 278.2786 15.08840970 71195,6917.877,95.437,540.649,538.835,0.0
